NORAD_CAT_ID,OBJECT_NAME,OBJECT_TYPE,EPOCH,MEAN_MOTION,ECCENTRICITY,INCLINATION,RA_OF_ASC_NODE,ARG_OF_PERICENTER,MEAN_ANOMALY,BSTAR,MEAN_MOTION_DOT,MEAN_MOTION_DDOT,TLE_LINE0,TLE_LINE1,TLE_LINE2,SEMIMAJOR_AXIS,PERIOD,APOGEE,PERIGEE,DECAYED
53633.0,STARLINK-4593,PAYLOAD,2024-05-08 22:15:57,15.08830665,0.0001486,53.2177,350.8245,89.1013,271.015,-0.00018488,-3.228e-05,0.0,0 STARLINK-4593,1 53633U 22104AX  24129.92774612 -.00003228  00000-0 -18488-3 0  9994,2 53633  53.2177 350.8245 0001486  89.1013 271.0150 15.08830665 94781,6917.909,95.438,540.802,538.746,0.0
53633.0,STARLINK-4593,PAYLOAD,2024-05-09 07:48:16,15.08832381,0.0001459,53.2182,349.0384,84.0415,276.0744,-0.00012616,-2.295e-05,0.0,0 STARLINK-4593,1 53633U 22104AX  24130.32518781 -.00002295  00000-0 -12616-3 0  9993,2 53633  53.2182 349.0384 0001459  84.0415 276.0744 15.08832381 94849,6917.904,95.438,540.778,538.759,0.0
53633.0,STARLINK-4593,PAYLOAD,2024-05-09 22:06:44,15.08845893,0.0001212,53.2166,346.3615,97.5184,262.5946,7.3013e-05,8.75e-06,0.0,0 STARLINK-4593,1 53633U 22104AX  24130.92134494  .00000875  00000-0  73013-4 0  9993,2 53633  53.2166 346.3615 0001212  97.5184 262.5946 15.08845893 94933,6917.862,95.437,540.566,538.889,0.0
53633.0,STARLINK-4593,PAYLOAD,2024-05-09 23:42:07,15.08849144,0.0001196,53.2161,346.0635,97.7485,262.3643,0.00014026,1.946e-05,0.0,0 STARLINK-4593,1 53633U 22104AX  24130.98758366  .00001946  00000-0  14026-3 0  9997,2 53633  53.2161 346.0635 0001196  97.7485 262.3643 15.08849144 94254,6917.852,95.437,540.545,538.89,0.0
53633.0,STARLINK-4593,PAYLOAD,2024-05-10 07:39:03,15.08840135,0.0001169,53.2152,344.5785,98.4663,261.6461,0.00024436,3.603e-05,0.0,0 STARLINK-4593,1 53633U 22104AX  24131.31878937  .00003603  00000-0  24436-3 0  9990,2 53633  53.2152 344.5785 0001169  98.4663 261.6461 15.08840135 94306,6917.88,95.438,540.554,538.936,0.0
53633.0,STARLINK-4593,PAYLOAD,2024-05-10 14:00:36,15.08840649,0.0001537,53.2154,343.3908,83.9247,276.192,0.00032239,4.847e-05,0.0,0 STARLINK-4593,1 53633U 22104AX  24131.58375210  .00004847  00000-0  32239-3 0  9996,2 53633  53.2154 343.3908 0001537  83.9247 276.1920 15.08840649 95030,6917.878,95.438,540.807,538.68,0.0
53633.0,STARLINK-4593,PAYLOAD,2024-05-10 20:22:08,15.08851554,0.0001149,53.2161,342.1987,101.4653,258.6468,0.00051022,7.844e-05,0.0,0 STARLINK-4593,1 53633U 22104AX  24131.84870768  .00007844  00000-0  51022-3 0  9994,2 53633  53.2161 342.1987 0001149 101.4653 258.6468 15.08851554 95071,6917.845,95.437,540.505,538.915,0.0
53633.0,STARLINK-4593,PAYLOAD,2024-05-10 23:32:54,15.08862915,0.0001326,53.2172,341.6033,95.6866,264.4277,0.0006991,0.00010863,0.0,0 STARLINK-4593,1 53633U 22104AX  24131.98118390  .00010863  00000-0  69910-3 0  9995,2 53633  53.2172 341.6033 0001326  95.6866 264.4277 15.08862915 94408,6917.81,95.436,540.593,538.758,0.0
53633.0,STARLINK-4593,PAYLOAD,2024-05-11 20:12:53,15.08830438,0.0001616,53.2165,337.7389,95.2958,264.8219,-0.0020684,-0.00033048,0.0,0 STARLINK-4593,1 53633U 22104AX  24132.84228349 -.00033048  00000-0 -20684-2 0  9993,2 53633  53.2165 337.7389 0001616  95.2958 264.8219 15.08830438 94539,6917.91,95.438,540.893,538.657,0.0
53633.0,STARLINK-4593,PAYLOAD,2024-05-12 20:03:44,15.08775246,0.0001319,53.2173,333.2774,87.34,272.7743,0.00072019,0.00011172,0.0,0 STARLINK-4593,1 53633U 22104AX  24133.83592889  .00011172  00000-0  72019-3 0  9998,2 53633  53.2173 333.2774 0001319  87.3400 272.7743 15.08775246 94682,6918.078,95.442,540.856,539.031,0.0
53633.0,STARLINK-4593,PAYLOAD,2024-05-13 13:32:59,15.0882006,0.0001193,53.2189,330.0091,89.8285,270.2844,0.001243,0.00019539,0.0,0 STARLINK-4593,1 53633U 22104AX  24134.56457928  .00019539  00000-0  12430-2 0  9998,2 53633  53.2189 330.0091 0001193  89.8285 270.2844 15.08820060 94796,6917.941,95.439,540.632,538.981,0.0
53633.0,STARLINK-4593,PAYLOAD,2024-05-13 19:54:31,15.08841468,0.0001252,53.2196,328.8188,93.1666,266.9469,0.0013187,0.00020762,0.0,0 STARLINK-4593,1 53633U 22104AX  24134.82953616  .00020762  00000-0  13187-2 0  9992,2 53633  53.2196 328.8188 0001252  93.1666 266.9469 15.08841468 94838,6917.876,95.437,540.607,538.875,0.0
53633.0,STARLINK-4593,PAYLOAD,2024-05-14 05:26:50,15.08862976,0.0001188,53.2173,327.0332,93.4155,266.6973,0.0010773,0.0001691,0.0,0 STARLINK-4593,1 53633U 22104AX  24135.22696919  .00016910  00000-0  10773-2 0  9995,2 53633  53.2173 327.0332 0001188  93.4155 266.6973 15.08862976 95586,6917.81,95.436,540.497,538.853,0.0
53633.0,STARLINK-4593,PAYLOAD,2024-05-14 19:45:17,15.08875196,0.0001244,53.2191,324.3578,94.7358,265.3776,0.00079525,0.00012403,0.0,0 STARLINK-4593,1 53633U 22104AX  24135.82311856  .00012403  00000-0  79525-3 0  9999,2 53633  53.2191 324.3578 0001244  94.7358 265.3776 15.08875196 95675,6917.773,95.435,540.498,538.777,0.0
53633.0,STARLINK-4593,PAYLOAD,2024-05-15 05:17:35,15.08878678,6.42e-05,53.2167,322.5708,50.7863,309.3187,0.00080908,0.00012626,0.0,0 STARLINK-4593,1 53633U 22104AX  24136.22054909  .00012626  00000-0  80908-3 0  9991,2 53633  53.2167 322.5708 0000642  50.7863 309.3187 15.08878678 95041,6917.762,95.435,540.071,539.183,0.0
53633.0,STARLINK-4593,PAYLOAD,2024-05-15 21:11:26,15.08880267,0.0001306,53.218,319.5988,73.3265,286.7871,0.0012281,0.00019333,0.0,0 STARLINK-4593,1 53633U 22104AX  24136.88294192  .00019333  00000-0  12281-2 0  9993,2 53633  53.2180 319.5988 0001306  73.3265 286.7871 15.08880267 95143,6917.757,95.435,540.526,538.719,0.0
53633.0,STARLINK-4593,PAYLOAD,2024-05-16 05:08:22,15.08859902,0.0001292,53.2174,318.1108,95.9904,264.1235,0.00032968,4.966e-05,0.0,0 STARLINK-4593,1 53633U 22104AX  24137.21414352  .00004966  00000-0  32968-3 0  9994,2 53633  53.2174 318.1108 0001292  95.9904 264.1235 15.08859902 95190,6917.82,95.436,540.578,538.791,0.0
53633.0,STARLINK-4593,PAYLOAD,2024-05-16 11:29:54,15.08830353,8.29e-05,53.2161,316.9206,103.7773,256.3312,-0.00048639,-8.018e-05,0.0,0 STARLINK-4593,1 53633U 22104AX  24137.47910481 -.00008018  00000-0 -48639-3 0  9992,2 53633  53.2161 316.9206 0000829 103.7773 256.3312 15.08830353 95231,6917.91,95.438,540.348,539.201,0.0
53633.0,STARLINK-4593,PAYLOAD,2024-05-17 04:59:09,15.08842945,0.0002079,53.2174,313.6482,87.5099,272.6131,0.00066843,0.00010367,0.0,0 STARLINK-4593,1 53633U 22104AX  24138.20775164  .00010367  00000-0  66843-3 0  9996,2 53633  53.2174 313.6482 0002079  87.5099 272.6131 15.08842945 95346,6917.871,95.437,541.175,538.298,0.0
53633.0,STARLINK-4593,PAYLOAD,2024-05-17 17:42:15,15.08838419,0.0002129,53.2147,311.2709,89.3181,270.8055,0.00036027,5.45e-05,0.0,0 STARLINK-4593,1 53633U 22104AX  24138.73767393  .00005450  00000-0  36027-3 0  9997,2 53633  53.2147 311.2709 0002129  89.3181 270.8055 15.08838419 95425,6917.885,95.438,541.223,538.277,0.0
53633.0,STARLINK-4593,PAYLOAD,2024-05-18 04:49:57,15.08834534,0.000174,53.2129,309.19,89.8017,270.3174,0.0002369,3.484e-05,0.0,0 STARLINK-4593,1 53633U 22104AX  24139.20135697  .00003484  00000-0  23690-3 0  9993,2 53633  53.2129 309.1900 0001740  89.8017 270.3174 15.08834534 95493,6917.897,95.438,540.966,538.558,0.0
53633.0,STARLINK-4593,PAYLOAD,2024-05-18 17:33:01,15.08857074,0.0001033,53.2145,306.8117,74.4779,285.6327,0.00063774,9.881e-05,0.0,0 STARLINK-4593,1 53633U 22104AX  24139.73126831  .00009881  00000-0  63774-3 0  9995,2 53633  53.2145 306.8117 0001033  74.4779 285.6327 15.08857074 95577,6917.828,95.436,540.408,538.979,0.0
53633.0,STARLINK-4593,PAYLOAD,2024-05-19 14:13:02,15.08829495,0.0001534,53.2148,302.9445,108.3641,251.7518,-0.00034913,-5.838e-05,0.0,0 STARLINK-4593,1 53633U 22104AX  24140.59239102 -.00005838  00000-0 -34913-3 0  9990,2 53633  53.2148 302.9445 0001534 108.3641 251.7518 15.08829495 96395,6917.912,95.438,540.839,538.716,0.0
53633.0,STARLINK-4593,PAYLOAD,2024-05-19 20:34:35,15.08825729,0.0001376,53.2175,301.7568,109.8358,250.2782,0.0018138,0.00028685,0.0,0 STARLINK-4593,1 53633U 22104AX  24140.85735722  .00028685  00000-0  18138-2 0  9991,2 53633  53.2175 301.7568 0001376 109.8358 250.2782 15.08825729 95744,6917.924,95.438,540.741,538.837,0.0
53633.0,STARLINK-4593,PAYLOAD,2024-05-20 14:03:50,15.08844571,0.0001431,53.2177,298.4854,107.3399,252.775,0.0011511,0.00018081,0.0,0 STARLINK-4593,1 53633U 22104AX  24141.58600128  .00018081  00000-0  11511-2 0  9990,2 53633  53.2177 298.4854 0001431 107.3399 252.7750 15.08844571 96543,6917.866,95.437,540.721,538.741,0.0
53633.0,STARLINK-4593,PAYLOAD,2024-05-20 20:25:22,15.08858727,0.0001385,53.2174,297.2946,86.1514,273.9636,0.0012847,0.00020228,0.0,0 STARLINK-4593,1 53633U 22104AX  24141.85095911  .00020228  00000-0  12847-2 0  9997,2 53633  53.2174 297.2946 0001385  86.1514 273.9636 15.08858727 95893,6917.823,95.436,540.646,538.73,0.0
53633.0,STARLINK-4593,PAYLOAD,2024-05-21 13:54:37,15.08855006,0.0002185,53.2178,294.0269,96.0078,264.1164,0.00068893,0.00010698,0.0,0 STARLINK-4593,1 53633U 22104AX  24142.57959890  .00010698  00000-0  68893-3 0  9995,2 53633  53.2178 294.0269 0002185  96.0078 264.1164 15.08855006 96698,6917.835,95.437,541.211,538.188,0.0
53633.0,STARLINK-4593,PAYLOAD,2024-05-21 17:05:23,15.0887701,0.000143,53.2168,293.4325,97.4357,262.6798,0.0023635,0.00037566,0.0,0 STARLINK-4593,1 53633U 22104AX  24142.71207462  .00037566  00000-0  23635-2 0  9999,2 53633  53.2168 293.4325 0001430  97.4357 262.6798 15.08877010 96022,6917.767,95.435,540.622,538.643,0.0
53633.0,STARLINK-4593,PAYLOAD,2024-05-22 20:06:55,15.08877194,9.06e-05,53.2166,288.3774,124.542,235.5658,0.0020352,0.00032284,0.0,0 STARLINK-4593,1 53633U 22104AX  24143.83814594  .00032284  00000-0  20352-2 0  9998,2 53633  53.2166 288.3774 0000906 124.5420 235.5658 15.08877194 96196,6917.767,95.435,540.258,539.005,0.0
53633.0,STARLINK-4593,PAYLOAD,2024-05-23 13:36:11,15.08822788,0.0001743,53.2154,285.102,111.6501,248.4677,0.0010799,0.00016932,0.0,0 STARLINK-4593,1 53633U 22104AX  24144.56680234  .00016932  00000-0  10799-2 0  9997,2 53633  53.2154 285.1020 0001743 111.6501 248.4677 15.08822788 96990,6917.933,95.439,541.004,538.592,0.0
